GPS BIIR-2  (PRN 13)    
1 24876C 97035A   23056.82645833 -.00000000  00000-0  00000-0 0   561
2 24876  55.5500 145.7844 0065918  52.1401  82.4693  2.00564124    11
GPS BIIR-4  (PRN 20)    
1 26360C 00025A   23056.82645833 -.00000000  00000-0  00000-0 0   564
2 26360  54.2704  68.4192 0044686 196.1784  27.2567  2.00553972    18
GPS BIIR-8  (PRN 16)    
1 27663C 03005A   23056.82645833  .00000000  00000-0  00000-0 0   561
2 27663  55.3501 262.9892 0132295  43.6446 154.5382  2.00577524    13
GPS BIIR-9  (PRN 21)    
1 27704C 03010A   23056.82645833 -.00000000  00000-0  00000-0 0   564
2 27704  55.0943  13.0591 0249901 313.2966 104.3398  2.00566746    17
GPS BIIR-11 (PRN 19)    
1 28190C 04009A   23056.82645833  .00000000  00000-0  00000-0 0   562
2 28190  55.8351 324.0260 0089514 129.5211 227.0527  2.00571836    12
GPS BIIR-13 (PRN 02)    
1 28474C 04045A   23056.82645833 -.00000000  00000-0  00000-0 0   568
2 28474  55.4196  13.2961 0201989 283.9172 282.9868  2.00562702    18
GPS BIIRM-1 (PRN 17)    
1 28874C 05038A   23056.82645833  .00000000  00000-0  00000-0 0   564
2 28874  55.8915 321.4701 0138832 278.5682 105.1177  2.00558588    19
GPS BIIRM-2 (PRN 31)    
1 29486C 06042A   23056.82645833  .00000000  00000-0  00000-0 0   560
2 29486  54.6951 199.2076 0106691  27.7957 272.8497  2.00564735    17
GPS BIIRM-3 (PRN 12)    
1 29601C 06052A   23056.82645833  .00000000  00000-0  00000-0 0   560
2 29601  55.3647 261.9382 0087069  76.5327 260.0112  2.00566423    12
GPS BIIRM-4 (PRN 15)    
1 32260C 07047A   23056.82645833 -.00000000  00000-0  00000-0 0   561
2 32260  53.3920 130.0386 0145340  67.3071  52.0387  2.00562135    19
GPS BIIRM-5 (PRN 29)    
1 32384C 07062A   23056.82645833  .00000000  00000-0  00000-0 0   564
2 32384  56.0182 322.2648 0020742 141.7889 105.4772  2.00575552    12
GPS BIIRM-6 (PRN 07)    
1 32711C 08012A   23056.82645833  .00000000  00000-0  00000-0 0   564
2 32711  54.4598 198.0854 0170048 233.1011 305.7793  2.00573209    10
GPS BIIRM-8 (PRN 05)    
1 35752C 09043A   23056.82645833 -.00000000  00000-0  00000-0 0   568
2 35752  55.2739  75.3421 0055723  63.6514 129.2785  2.00570308    14
GPS BIIF-1  (PRN 25)    
1 36585C 10022A   23056.82645833  .00000000  00000-0  00000-0 0   561
2 36585  54.6569 257.2823 0109627  58.7047 254.6311  2.00552341    14
GPS BIIF-2  (PRN 01)    
1 37753C 11036A   23056.82645833 -.00000000  00000-0  00000-0 0   566
2 37753  56.7007  18.8529 0122394  53.0639 340.6843  2.00567072    10
GPS BIIF-3  (PRN 24)    
1 38833C 12053A   23056.82645833  .00000000  00000-0  00000-0 0   565
2 38833  53.5177 192.9796 0135703  50.1832 356.5293  2.00564538    13
GPS BIIF-4  (PRN 27)    
1 39166C 13023A   23056.82645833  .00000000  00000-0  00000-0 0   563
2 39166  55.5107 317.7429 0112277  39.4472 108.7433  2.00565244    17
GPS BIIF-5  (PRN 30)    
1 39533C 14008A   23056.82645833  .00000000  00000-0  00000-0 0   565
2 39533  53.6076 198.5140 0062923 210.2003 295.4265  2.00567682    10
GPS BIIF-6  (PRN 06)    
1 39741C 14026A   23056.82645833 -.00000000  00000-0  00000-0 0   567
2 39741  56.6572  18.3768 0030905 309.8077 356.2267  2.00570862    13
GPS BIIF-7  (PRN 09)    
1 40105C 14045A   23056.82645833 -.00000000  00000-0  00000-0 0   564
2 40105  54.7549 136.6844 0022504 115.1806 124.2903  2.00564263    13
GPS BIIF-8  (PRN 03)    
1 40294C 14068A   23056.82645833 -.00000000  00000-0  00000-0 0   568
2 40294  56.0168  77.9421 0043051  56.1751 276.0450  2.00559243    10
GPS BIIF-9  (PRN 26)    
1 40534C 15013A   23056.82645833  .00000000  00000-0  00000-0 0   565
2 40534  53.5561 254.1892 0077649  24.4937 211.1485  2.00566713    19
GPS BIIF-10 (PRN 08)    
1 40730C 15033A   23056.82645833  .00000000  00000-0  00000-0 0   565
2 40730  55.0029 316.4494 0082948  11.1934 108.9773  2.00565281    13
GPS BIIF-11 (PRN 10)    
1 41019C 15062A   23056.82645833 -.00000000  00000-0  00000-0 0   569
2 41019  56.0029  77.7894 0086030 221.4061 218.8227  2.00562600    16
GPS BIIF-12 (PRN 32)    
1 41328C 16007A   23056.82645833 -.00000000  00000-0  00000-0 0   562
2 41328  54.9650 137.4168 0068483 232.4362 144.9212  2.00558775    13
GPS BIII-1  (PRN 04)    
1 43873C 18109A   23056.82645833 -.00000000  00000-0  00000-0 0   564
2 43873  55.1429 139.8910 0023607 192.1207  75.4830  2.00559472    16
GPS BIII-2  (PRN 18)    
1 44506C 19056A   23056.82645833 -.00000000  00000-0  00000-0 0   560
2 44506  55.7764  18.9854 0029969 186.2583 342.2634  2.00562152    16
GPS BIII-3  (PRN 23)    
1 45854C 20041A   23056.82645833 -.00000000  00000-0  00000-0 0   563
2 45854  55.7234  76.2567 0030212 186.8526 283.7097  2.00566839    17
GPS BIII-4  (PRN 14)    
1 46826C 20078A   23056.82645833  .00000000  00000-0  00000-0 0   562
2 46826  54.4113 259.8045 0027477 187.9904 258.6523  2.00564372    15
GPS BIII-5  (PRN 11)    
1 48859C 21054A   23056.82645833 -.00000000  00000-0  00000-0 0   566
2 48859  55.2889  20.8618 0008866 219.7469  50.3425  2.00559777    16
GPS BIII-6  (PRN 28)    
1 55268C 23009A   23056.82645833  .00000000  00000-0  00000-0 0   569
2 55268  55.0992 195.8855 0007583  99.1299 212.2713  2.00568452    12
